{"type":"FeatureCollection","features":[{"type":"Feature","geometry":null,"properties":{"featurecla":"Admin-0 country","scalerank":6,"LABELRANK":5,"SOVEREIGNT":"France","SOV_A3":"FR1","ADM0_DIF":1,"LEVEL":2,"TYPE":"Dependency","TLC":"1","ADMIN":"Clipperton Island","ADM0_A3":"CLP","GEOU_DIF":0,"GEOUNIT":"Clipperton Island","GU_A3":"CLP","SU_DIF":0,"SUBUNIT":"Clipperton Island","SU_A3":"CLP","BRK_DIFF":0,"NAME":"Clipperton I.","NAME_LONG":"Clipperton Island","BRK_A3":"CLP","BRK_NAME":"Clipperton I.","BRK_GROUP":null,"ABBREV":"Clp. I.","POSTAL":"CI","FORMAL_EN":null,"FORMAL_FR":null,"NAME_CIAWF":null,"NOTE_ADM0":"Fr.","NOTE_BRK":null,"NAME_SORT":"Clipperton Island","NAME_ALT":null,"MAPCOLOR7":7,"MAPCOLOR8":5,"MAPCOLOR9":9,"MAPCOLOR13":11,"POP_EST":0,"POP_RANK":1,"POP_YEAR":2019,"GDP_MD":0,"GDP_YEAR":2016,"ECONOMY":"7. Least developed region","INCOME_GRP":"5. Low income","FIPS_10":"IP","ISO_A2":"-99","ISO_A2_EH":"FR","ISO_A3":"-99","ISO_A3_EH":"FRA","ISO_N3":"-99","ISO_N3_EH":"250","UN_A3":"-099","WB_A2":"-99","WB_A3":"-99","WOE_ID":23424850,"WOE_ID_EH":23424850,"WOE_NOTE":"WOE Admin-1 states provinces (territory) match.","ADM0_ISO":"FRA","ADM0_DIFF":"1","ADM0_TLC":"CLP","ADM0_A3_US":"CLP","ADM0_A3_FR":"CLP","ADM0_A3_RU":"CLP","ADM0_A3_ES":"CLP","ADM0_A3_CN":"CLP","ADM0_A3_TW":"CLP","ADM0_A3_IN":"CLP","ADM0_A3_NP":"CLP","ADM0_A3_PK":"CLP","ADM0_A3_DE":"CLP","ADM0_A3_GB":"CLP","ADM0_A3_BR":"CLP","ADM0_A3_IL":"CLP","ADM0_A3_PS":"CLP","ADM0_A3_SA":"CLP","ADM0_A3_EG":"CLP","ADM0_A3_MA":"CLP","ADM0_A3_PT":"CLP","ADM0_A3_AR":"CLP","ADM0_A3_JP":"CLP","ADM0_A3_KO":"CLP","ADM0_A3_VN":"CLP","ADM0_A3_TR":"CLP","ADM0_A3_ID":"CLP","ADM0_A3_PL":"CLP","ADM0_A3_GR":"CLP","ADM0_A3_IT":"CLP","ADM0_A3_NL":"CLP","ADM0_A3_SE":"CLP","ADM0_A3_BD":"CLP","ADM0_A3_UA":"CLP","ADM0_A3_UN":-99,"ADM0_A3_WB":-99,"CONTINENT":"Seven seas (open ocean)","REGION_UN":"Americas","SUBREGION":"Central America","REGION_WB":"Latin America & Caribbean","NAME_LEN":13,"LONG_LEN":17,"ABBREV_LEN":7,"TINY":-99,"HOMEPART":-99,"MIN_ZOOM":0,"MIN_LABEL":5,"MAX_LABEL":9.5,"LABEL_X":-109.22045,"LABEL_Y":10.297323999999998,"NE_ID":1159320635,"WIKIDATAID":"Q161258","NAME_AR":"جزيرة كليبرتون","NAME_BN":"ক্লিপারটন দ্বীপপুঞ্জ","NAME_DE":"Clipperton-Insel","NAME_EN":"Clipperton Island","NAME_ES":"Isla Clipperton","NAME_FA":"جزیره کلیپرتون","NAME_FR":"île Clipperton","NAME_EL":"Νήσος Κλίπερτον","NAME_HE":"קליפרטון","NAME_HI":"क्लिपरटन द्वीप","NAME_HU":"Clipperton-sziget","NAME_ID":"Pulau Clipperton","NAME_IT":"Clipperton","NAME_JA":"クリッパートン島","NAME_KO":"클리퍼턴섬","NAME_NL":"Clipperton","NAME_PL":"Wyspa Clippertona","NAME_PT":"Ilha de Clipperton","NAME_RU":"Клиппертон","NAME_SV":"Clippertonön","NAME_TR":"Clipperton Adası","NAME_UK":"Кліппертон","NAME_UR":"جزیرہ کلپرٹن","NAME_VI":"Clipperton","NAME_ZH":"克利珀顿岛","NAME_ZHT":"克利珀頓島","FCLASS_ISO":"Unrecognized","TLC_DIFF":"1","FCLASS_TLC":"Admin-0 dependency","FCLASS_US":null,"FCLASS_FR":null,"FCLASS_RU":null,"FCLASS_ES":null,"FCLASS_CN":null,"FCLASS_TW":null,"FCLASS_IN":null,"FCLASS_NP":null,"FCLASS_PK":null,"FCLASS_DE":null,"FCLASS_GB":null,"FCLASS_BR":null,"FCLASS_IL":null,"FCLASS_PS":null,"FCLASS_SA":null,"FCLASS_EG":null,"FCLASS_MA":null,"FCLASS_PT":null,"FCLASS_AR":null,"FCLASS_JP":null,"FCLASS_KO":null,"FCLASS_VN":null,"FCLASS_TR":null,"FCLASS_ID":null,"FCLASS_PL":null,"FCLASS_GR":null,"FCLASS_IT":null,"FCLASS_NL":null,"FCLASS_SE":null,"FCLASS_BD":null,"FCLASS_UA":null}}]}